C/2022 A2 (PANSTARRS),h,02/18.2854/2023,108.2054,171.6339,88.3721,1.000185,1.734835,2000,9.5,4.0
# From MPEC 2026-E44
C/2022 A3 (Lemmon-ATLAS),e,88.3626,325.4485,234.8986,985.1139,0.0000319,0.99623873,0.0000,09/29.1624/2023,2000,g  8.0,4.0
# From MPEC 2026-E44
P/2022 BV9 (Lemmon),e,11.9212,337.3014,16.2465,4.367381,0.1079872,0.23317354,218.1032,05/02.0/2026,2000,g  9.5,4.0
# From MPEC 2026-E44
P/2022 C1 (PANSTARRS),e,4.7635,113.0947,9.5412,7.239288,0.0506011,0.44920149,82.8780,05/02.0/2026,2000,g 12.0,4.0
# From MPEC 2026-E44
P/2022 C2 (PANSTARRS),e,9.9808,135.2431,89.1351,6.032603,0.0665192,0.44243268,90.7654,05/02.0/2026,2000,g 12.5,4.0
# From MPEC 2026-E44
P/2022 C3 (PANSTARRS),e,12.8241,139.0392,93.7847,9.616106,0.0330526,0.54570029,46.3275,05/02.0/2026,2000,g 11.5,4.0
# From MPEC 2026-E44
P/2022 D1 (PANSTARRS),e,44.0514,47.9263,88.6983,7.407998,0.0488824,0.54819178,83.4257,05/02.0/2026,2000,g 12.5,4.0
# From MPEC 2022-L66
P/2022 E1 (Christensen),e,19.0072,113.3397,114.8110,3.777548,0.1342422,0.22062770,191.0953,05/02.0/2026,2000,g 13.5,4.0
# From MPEC 2026-FC3
C/2022 E2 (ATLAS),h,09/14.3080/2024,137.1410,125.3961,41.7836,1.000683,3.667750,2000,5.0,4.0
# From MPEC 2026-E44
C/2022 E3 (ZTF),h,01/12.3118/2023,109.1816,302.4864,145.8693,1.000036,1.116721,2000,7.5,4.0
# From MPEC 2026-E44
C/2022 F1 (ATLAS),e,57.9811,350.6365,278.3993,67862,0.0000001,0.99991186,0.0000,08/06.3014/2022,2000,g  7.0,4.0
# From MPEC 2026-E44
C/2022 H1 (PANSTARRS),e,49.8651,6.3048,246.2900,863.7149,0.0000388,0.99109858,0.0000,01/18.4666/2024,2000,g  6.0,4.0
# From MPEC 2026-E44
C/2022 JK5 (PANSTARRS),e,16.8275,59.6527,247.3559,43.45329,0.0034409,0.93796517,3.7833,05/02.0/2026,2000,g 11.0,4.0
# From MPEC 2026-E44
C/2022 L2 (ATLAS),h,03/11.9306/2024,129.3098,39.2528,199.9249,1.000291,2.694329,2000,6.5,4.0
# From MPEC 2026-G41
C/2022 N2 (PANSTARRS),h,08/01.0669/2025,5.5032,319.7308,75.4518,1.003937,3.826139,2000,6.0,4.0
# From MPEC 2026-E44
C/2022 O1 (ATLAS),h,02/14.7043/2022,71.0722,49.9031,268.9289,1.000357,7.435227,2000,6.0,4.0
# From MPEC 2026-FC5
P/2022 P2 (ZTF),e,12.4416,291.1672,137.8156,4.493494,0.1034732,0.55764707,143.9444,05/02.0/2026,2000,g 12.5,4.0
# From MPEC 2026-G41
C/2022 QE78 (ATLAS),e,36.6585,119.8919,0.6583,1682,0.0000143,0.99674390,0.0000,09/12.1981/2025,2000,g  5.0,4.0
# From MPEC 2026-E44
P/2022 R1 (PANSTARRS),e,7.3909,175.5798,221.6058,7.116553,0.0519158,0.49970005,48.9335,05/02.0/2026,2000,g 11.5,4.0
# From MPEC 2026-E44
C/2022 R3 (Leonard),h,03/05.9545/2023,43.0586,8.2690,72.9614,1.001449,5.134874,2000,9.0,4.0
# From MPEC 2026-E44
P/2022 R5 (PANSTARRS),e,15.2924,115.0392,240.4690,3.070905,0.1831490,0.19447684,263.2989,05/02.0/2026,2000,g 16.0,4.0
# From MPEC 2026-G41
C/2022 R6 (PANSTARRS),h,08/27.1152/2025,57.0330,150.7764,319.9973,1.005015,6.566243,2000,5.0,4.0
# From MPEC 2026-E44
P/2022 S1 (PANSTARRS),e,34.5619,136.0845,262.8576,6.408107,0.0607588,0.50719374,82.1830,05/02.0/2026,2000,g 13.0,4.0
# From MPEC 2026-E44
C/2022 S4 (Lemmon),e,101.1980,220.1789,268.5567,1431,0.0000182,0.99806972,0.0000,07/18.7914/2024,2000,g  8.0,4.0
# From MPEC 2026-E44
C/2022 T1 (Lemmon),h,02/17.5486/2024,22.5378,236.9011,324.2991,1.000665,3.443445,2000,9.0,4.0
# From MPEC 2026-E44
C/2022 U1 (Leonard),h,03/26.2242/2024,128.1404,72.5329,78.6175,1.000678,4.201793,2000,8.5,4.0
# From MPEC 2026-E44
C/2022 U3 (Bok),e,33.6612,272.7866,189.1575,10760,0.0000009,0.99955127,0.0000,07/28.6898/2024,2000,g  7.5,4.0
# From MPEC 2026-E44
C/2022 U4 (Bok),e,52.0603,132.9185,88.9637,3187,0.0000055,0.99909136,0.0000,08/03.7660/2023,2000,g 10.5,4.0
# From MPEC 2026-E44
C/2022 V2 (Lemmon),e,98.9095,332.8309,168.9801,36.66971,0.0044386,0.94366388,4.0490,05/02.0/2026,2000,g 12.0,4.0
# From MPEC 2026-E44
P/2022 W1 (Rankin),e,13.4607,38.8430,17.9675,6.977739,0.0534727,0.51613093,70.8071,05/02.0/2026,2000,g 12.5,4.0
# From MPEC 2026-E44
C/2022 W2 (ATLAS),e,63.4906,320.4209,123.3554,340.6095,0.0001568,0.99081785,0.0000,03/08.5737/2023,2000,g 11.5,4.0
# From MPEC 2026-E43
C/2023 A3 (Tsuchinshan-ATLAS),h,09/27.7858/2024,139.1051,21.6362,308.5600,1.000169,0.391529,2000,6.5,3.2
# From MPEC 2026-E44
P/2023 B1 (PANSTARRS),e,14.5866,78.5648,81.9491,7.071709,0.0524104,0.13144701,57.1517,05/02.0/2026,2000,g  5.5,4.0
# From MPEC 2026-E44
P/2023 B3 (PANSTARRS),e,9.1557,153.9698,240.3911,4.552501,0.1014680,0.12183363,209.5668,05/02.0/2026,2000,g 10.5,4.0
# From MPEC 2026-FC3
C/2023 C2 (ATLAS),e,48.3224,301.0063,357.4196,1679,0.0000143,0.99858923,0.0000,11/16.6798/2024,2000,g  7.0,4.0
# From MPEC 2026-G41
C/2023 F3 (ATLAS),h,02/02.7476/2025,145.9627,109.4684,265.5574,1.002841,5.191635,2000,6.0,4.0
# From MPC191587
C/2023 H1 (PANSTARRS),e,21.7828,292.6461,333.7254,743.0685,0.0000487,0.99401577,0.0000,11/28.4841/2024,2000,g  8.5,4.0
# From MPEC 2026-E44
C/2023 H3 (PANSTARRS),e,2.4883,55.0770,193.2346,13.61612,0.0196166,0.61589984,15.7718,05/02.0/2026,2000,g 10.0,4.0
# From MPEC 2026-FR0
C/2023 H5 (Lemmon),h,06/30.4293/2025,97.8549,159.4724,60.1222,1.000581,4.312900,2000,7.0,4.0
# From MPEC 2026-E44
P/2023 JN16 (Lemmon),e,3.7021,11.7750,353.5192,2.697863,0.2224202,0.14781495,108.1414,05/02.0/2026,2000,g 14.0,4.0
# From MPEC 2026-E44
P/2023 M1 (PANSTARRS),e,12.2921,216.8650,79.6884,6.838040,0.0551197,0.58663398,47.9498,05/02.0/2026,2000,g 13.5,4.0
# From MPEC 2026-E44
P/2023 M2 (PANSTARRS),e,19.7127,83.2574,243.7554,5.588818,0.0745975,0.36907927,75.2723,05/02.0/2026,2000,g 12.5,4.0
# From MPEC 2026-E44
P/2023 M4 (ATLAS),e,7.5920,296.2697,320.3760,5.442253,0.0776312,0.27915576,114.9089,05/02.0/2026,2000,g  7.5,4.0
# From MPEC 2026-E44
C/2023 P1 (Nishimura),e,132.4842,66.7780,116.1837,55.89290,0.0023587,0.99599637,0.0000,09/17.4959/2023,2000,g 10.0,4.0
# From MPEC 2026-E44
C/2023 Q1 (PANSTARRS),h,12/01.0872/2024,36.6427,7.1242,84.4275,1.004741,2.576409,2000,10.0,4.0
# From MPEC 2026-E44
C/2023 Q2 (PANSTARRS),e,104.0615,92.6769,171.6520,328.4106,0.0001656,0.99023236,0.0000,06/23.7812/2024,2000,g 11.5,4.0
# From MPEC 2026-G41
C/2023 R1 (PANSTARRS),h,04/13.3823/2026,149.3148,62.5696,144.2606,1.002374,3.570070,2000,6.0,4.0
# From MPEC 2026-E44
C/2023 R2 (PANSTARRS),h,08/12.2307/2024,30.6971,188.8589,337.3447,1.000381,0.904820,2000,10.5,4.0
# From MPEC 2026-E44
C/2023 RN3 (ATLAS),e,10.3517,207.0652,130.6219,10.15876,0.0304399,0.48978611,36.4671,05/02.0/2026,2000,g  7.5,4.0
# From MPEC 2026-EC7
C/2023 RS61 (PANSTARRS),e,19.9468,347.0353,119.5421,11.89446,0.0240263,0.32796201,337.2528,05/02.0/2026,2000,g  6.8,4.0
# From MPEC 2026-E44
P/2023 S1 (PANSTARRS),e,9.1575,317.2860,180.3637,3.845020,0.1307242,0.31852779,56.4255,05/02.0/2026,2000,g 11.5,4.0
# From MPEC 2026-E44
P/2023 T1 (PANSTARRS),e,6.6120,249.5797,202.9163,4.226867,0.1134165,0.33307451,80.4170,05/02.0/2026,2000,g 14.0,4.0
# From MPEC 2026-E44
C/2023 T3 (Fuls),e,27.2175,246.0017,302.8576,987.6639,0.0000318,0.99640730,0.0000,01/25.4494/2025,2000,g  8.5,4.0
# From MPEC 2026-E44
C/2023 TD22 (Lemmon),e,170.4879,5.5803,32.5312,48.31396,0.0029349,0.95124392,1.7395,05/02.0/2026,2000,g 12.5,4.0
# From MPC191587
C/2023 U1 (Fuls),e,108.1481,305.7995,255.6707,4278,0.0000035,0.99883741,0.0000,10/13.2073/2024,2000,g  8.0,4.0
# From MPEC 2026-FR0
C/2023 V1 (Lemmon),h,07/13.0712/2025,102.0077,15.0533,103.3215,1.000347,5.092655,2000,8.5,4.0
# From MPEC 2026-FC5
P/2023 V2 (PANSTARRS),e,9.8883,95.4728,330.5144,7.215178,0.0508550,0.56965463,41.6291,05/02.0/2026,2000,g 13.5,4.0
# From MPEC 2026-E44
C/2023 V3 (PANSTARRS),e,40.6272,91.2655,291.8119,12.69123,0.0217996,0.64561739,21.9125,05/02.0/2026,2000,g 11.5,4.0
# From MPEC 2026-E44
C/2023 V4 (Camarasa-Duszanowicz),h,05/30.4571/2024,67.1035,66.3260,50.8850,1.001308,1.122156,2000,12.0,4.0
# From MPEC 2026-E44
P/2023 V6 (PANSTARRS),e,3.9831,189.3891,191.3958,5.273073,0.0813970,0.17540601,102.4216,05/02.0/2026,2000,g 11.5,4.0
# From MPEC 2026-E44
C/2023 X1 (Leonard),e,110.5945,136.9623,321.4910,155.4622,0.0005085,0.99387183,0.0000,10/17.8030/2023,2000,g 13.5,3.2
# From MPEC 2026-FR0
C/2023 X2 (Lemmon),h,12/28.5022/2025,76.9808,66.3020,64.8047,1.000101,5.088617,2000,8.5,3.2
# From MPEC 2026-E44
P/2023 X3 (PANSTARRS),e,4.4828,62.0185,40.9452,4.247479,0.1125919,0.28609752,83.2708,05/02.0/2026,2000,g 15.5,4.0
# From MPEC 2026-E44
C/2023 X4 (Hogan),e,11.5903,28.7701,100.6434,9.932998,0.0314835,0.63154605,22.2484,05/02.0/2026,2000,g 12.0,4.0
# From MPEC 2026-E44
C/2023 X7 (PANSTARRS),e,69.1275,119.2056,354.3879,4096,0.0000038,0.99882309,0.0000,05/14.9577/2025,2000,g  9.0,4.0
# From MPEC 2026-E44
P/2023 Y2 (Gibbs),e,6.9916,79.2311,16.9529,3.748625,0.1357988,0.39210524,135.2285,05/02.0/2026,2000,g 15.5,4.0
# From MPEC 2026-G41
C/2024 A1 (ATLAS),e,94.5051,112.1400,353.1960,14755,0.0000005,0.99973743,0.0000,06/12.9620/2025,2000,g  7.0,4.0
# From MPEC 2026-E44
C/2024 A2 (ATLAS),e,119.1182,78.1714,295.5035,32.13838,0.0054096,0.94149237,3.9672,05/02.0/2026,2000,g 12.5,4.0
# From MPEC 2026-E44
C/2024 B1 (Lemmon),h,10/07.7871/2024,70.8933,79.1883,66.2289,1.001242,1.633892,2000,13.0,4.0
# From MPEC 2026-E44
C/2024 B2 (Lemmon),e,99.8729,294.3878,130.3182,1198,0.0000238,0.99659586,0.0000,10/05.2784/2023,2000,g 11.5,4.0
# From MPEC 2026-E44
C/2024 C1 (PANSTARRS),e,14.2257,83.8118,94.5189,10.59804,0.0285671,0.58357799,17.3862,05/02.0/2026,2000,g 11.5,4.0
# From MPEC 2026-E44
C/2024 C2 (PANSTARRS),e,27.2836,66.4560,87.6434,16.25299,0.0150420,0.44674113,6.2412,05/02.0/2026,2000,g  6.0,4.0
# From MPEC 2026-E44
C/2024 C3 (PANSTARRS),e,22.4474,359.6961,159.7759,11.68390,0.0246787,0.42532205,22.3092,05/02.0/2026,2000,g  9.0,4.0
# From MPEC 2026-E43
C/2024 D1 (Lemmon),e,132.4478,179.6526,125.8029,28750,0.0000002,0.99976726,0.0000,12/03.6355/2027,2000,g  7.3,4.0
# From MPEC 2026-G41
C/2024 E1 (Wierzchos),h,01/20.7721/2026,75.2392,108.0799,243.6256,1.000239,0.566146,2000,7.0,4.0
# From MPEC 2026-E44
C/2024 E2 (Bok),e,155.6527,135.6596,358.2131,51.09424,0.0026986,0.84931077,2.4806,05/02.0/2026,2000,g  8.0,4.0
# From MPEC 2026-E44
